{
  "type": "FeatureCollection",
  "features": [
    {
      "type": "Feature",
      "properties": {
        "norad_id": 31542,
        "name": "FENGYUN 1C DEB",
        "group": "fengyun-1c-debris",
        "lat": 11.163319822666978,
        "lon": -138.7918016044086,
        "alt_km": 791.9000330456774,
        "timestamp": "2025-12-11T10:53:16.170643+00:00",
        "meta_object_name": "FENGYUN 1C DEB",
        "meta_object_id": "1999-025BYH",
        "meta_epoch": "2025-12-08T14:34:57.942048",
        "meta_mean_motion": 14.22760731,
        "meta_eccentricity": 0.00472884,
        "meta_inclination": 98.7313,
        "meta_ra_of_asc_node": 36.6499,
        "meta_arg_of_pericenter": 218.708,
        "meta_mean_anomaly": 141.0706,
        "meta_ephemeris_type": 0,
        "meta_classification_type": "U",
        "meta_norad_cat_id": 31542,
        "meta_element_set_no": 999,
        "meta_rev_at_epoch": 95881,
        "meta_bstar": 0.0020971405,
        "meta_mean_motion_dot": 4.714e-05,
        "meta_mean_motion_ddot": 0,
        "tle_line1": "1 31542U 99025BYH 25342.60761507  .00004714  00000+0  20971-2 0  9994",
        "tle_line2": "2 31542  98.7313  36.6499 0047288 218.7080 141.0706 14.22760731958813"
      },
      "geometry": {
        "type": "Point",
        "coordinates": [
          -138.7918016044086,
          11.163319822666978
        ]
      }
    },
    {
      "type": "Feature",
      "properties": {
        "norad_id": 31544,
        "name": "FENGYUN 1C DEB",
        "group": "fengyun-1c-debris",
        "lat": -60.20480667580734,
        "lon": 52.48394777161071,
        "alt_km": 831.0444042313493,
        "timestamp": "2025-12-11T10:53:16.170653+00:00",
        "meta_object_name": "FENGYUN 1C DEB",
        "meta_object_id": "1999-025BYK",
        "meta_epoch": "2025-12-11T02:41:15.032256",
        "meta_mean_motion": 14.14327517,
        "meta_eccentricity": 0.003177,
        "meta_inclination": 98.8296,
        "meta_ra_of_asc_node": 36.3952,
        "meta_arg_of_pericenter": 273.6903,
        "meta_mean_anomaly": 86.0637,
        "meta_ephemeris_type": 0,
        "meta_classification_type": "U",
        "meta_norad_cat_id": 31544,
        "meta_element_set_no": 999,
        "meta_rev_at_epoch": 95734,
        "meta_bstar": 0.00097605,
        "meta_mean_motion_dot": 1.831e-05,
        "meta_mean_motion_ddot": 0,
        "tle_line1": "1 31544U 99025BYK 25345.11197954  .00001831  00000+0  97605-3 0  9990",
        "tle_line2": "2 31544  98.8296  36.3952 0031770 273.6903  86.0637 14.14327517957340"
      },
      "geometry": {
        "type": "Point",
        "coordinates": [
          52.48394777161071,
          -60.20480667580734
        ]
      }
    },
    {
      "type": "Feature",
      "properties": {
        "norad_id": 31546,
        "name": "FENGYUN 1C DEB",
        "group": "fengyun-1c-debris",
        "lat": 70.19886741384286,
        "lon": -101.19103209991232,
        "alt_km": 752.1723483586784,
        "timestamp": "2025-12-11T10:53:16.170663+00:00",
        "meta_object_name": "FENGYUN 1C DEB",
        "meta_object_id": "1999-025BYM",
        "meta_epoch": "2025-12-10T22:29:01.330080",
        "meta_mean_motion": 14.13105869,
        "meta_eccentricity": 0.0146532,
        "meta_inclination": 98.2435,
        "meta_ra_of_asc_node": 54.5892,
        "meta_arg_of_pericenter": 142.0331,
        "meta_mean_anomaly": 219.1282,
        "meta_ephemeris_type": 0,
        "meta_classification_type": "U",
        "meta_norad_cat_id": 31546,
        "meta_element_set_no": 999,
        "meta_rev_at_epoch": 94763,
        "meta_bstar": 0.0026879,
        "meta_mean_motion_dot": 5.527e-05,
        "meta_mean_motion_ddot": 0,
        "tle_line1": "1 31546U 99025BYM 25344.93682095  .00005527  00000+0  26879-2 0  9996",
        "tle_line2": "2 31546  98.2435  54.5892 0146532 142.0331 219.1282 14.13105869947632"
      },
      "geometry": {
        "type": "Point",
        "coordinates": [
          -101.19103209991232,
          70.19886741384286
        ]
      }
    },
    {
      "type": "Feature",
      "properties": {
        "norad_id": 31547,
        "name": "FENGYUN 1C DEB",
        "group": "fengyun-1c-debris",
        "lat": -12.377338847395992,
        "lon": -152.8288235630523,
        "alt_km": 802.1600935272181,
        "timestamp": "2025-12-11T10:53:16.170674+00:00",
        "meta_object_name": "FENGYUN 1C DEB",
        "meta_object_id": "1999-025BYN",
        "meta_epoch": "2025-12-09T09:02:48.494688",
        "meta_mean_motion": 14.23103077,
        "meta_eccentricity": 0.00537834,
        "meta_inclination": 99.0872,
        "meta_ra_of_asc_node": 27.0415,
        "meta_arg_of_pericenter": 262.539,
        "meta_mean_anomaly": 96.9674,
        "meta_ephemeris_type": 0,
        "meta_classification_type": "U",
        "meta_norad_cat_id": 31547,
        "meta_element_set_no": 999,
        "meta_rev_at_epoch": 63969,
        "meta_bstar": 0.0021137662,
        "meta_mean_motion_dot": 4.797e-05,
        "meta_mean_motion_ddot": 0,
        "tle_line1": "1 31547U 99025BYN 25343.37695017  .00004797  00000+0  21138-2 0  9993",
        "tle_line2": "2 31547  99.0872  27.0415 0053783 262.5390  96.9674 14.23103077639691"
      },
      "geometry": {
        "type": "Point",
        "coordinates": [
          -152.8288235630523,
          -12.377338847395992
        ]
      }
    },
    {
      "type": "Feature",
      "properties": {
        "norad_id": 31550,
        "name": "FENGYUN 1C DEB",
        "group": "fengyun-1c-debris",
        "lat": -67.20060505483404,
        "lon": 5.299989165967486,
        "alt_km": 633.5416557041262,
        "timestamp": "2025-12-11T10:53:16.170684+00:00",
        "meta_object_name": "FENGYUN 1C DEB",
        "meta_object_id": "1999-025BYR",
        "meta_epoch": "2025-12-08T18:10:11.266176",
        "meta_mean_motion": 14.40173204,
        "meta_eccentricity": 0.01902168,
        "meta_inclination": 98.3115,
        "meta_ra_of_asc_node": 342.3294,
        "meta_arg_of_pericenter": 284.9063,
        "meta_mean_anomaly": 73.1133,
        "meta_ephemeris_type": 0,
        "meta_classification_type": "U",
        "meta_norad_cat_id": 31550,
        "meta_element_set_no": 999,
        "meta_rev_at_epoch": 65397,
        "meta_bstar": 0.0013773158,
        "meta_mean_motion_dot": 5.342e-05,
        "meta_mean_motion_ddot": 0,
        "tle_line1": "1 31550U 99025BYR 25342.75707484  .00005342  00000+0  13773-2 0  9993",
        "tle_line2": "2 31550  98.3115 342.3294 0190216 284.9063  73.1133 14.40173204653975"
      },
      "geometry": {
        "type": "Point",
        "coordinates": [
          5.299989165967486,
          -67.20060505483404
        ]
      }
    },
    {
      "type": "Feature",
      "properties": {
        "norad_id": 31552,
        "name": "FENGYUN 1C DEB",
        "group": "fengyun-1c-debris",
        "lat": -55.80889134310411,
        "lon": -85.61526170559556,
        "alt_km": 798.6123882195789,
        "timestamp": "2025-12-11T10:53:16.170696+00:00",
        "meta_object_name": "FENGYUN 1C DEB",
        "meta_object_id": "1999-025BYT",
        "meta_epoch": "2025-12-10T07:13:02.887104",
        "meta_mean_motion": 14.45602719,
        "meta_eccentricity": 0.0085668,
        "meta_inclination": 98.6214,
        "meta_ra_of_asc_node": 106.1177,
        "meta_arg_of_pericenter": 28.3549,
        "meta_mean_anomaly": 332.2265,
        "meta_ephemeris_type": 0,
        "meta_classification_type": "U",
        "meta_norad_cat_id": 31552,
        "meta_element_set_no": 999,
        "meta_rev_at_epoch": 95841,
        "meta_bstar": 0.0042538,
        "meta_mean_motion_dot": 0.0001571,
        "meta_mean_motion_ddot": 0,
        "tle_line1": "1 31552U 99025BYT 25344.30072786  .00015710  00000+0  42538-2 0  9999",
        "tle_line2": "2 31552  98.6214 106.1177 0085668  28.3549 332.2265 14.45602719958414"
      },
      "geometry": {
        "type": "Point",
        "coordinates": [
          -85.61526170559556,
          -55.80889134310411
        ]
      }
    },
    {
      "type": "Feature",
      "properties": {
        "norad_id": 31553,
        "name": "FENGYUN 1C DEB",
        "group": "fengyun-1c-debris",
        "lat": -37.55473718517451,
        "lon": -146.84011450601196,
        "alt_km": 805.8774627772036,
        "timestamp": "2025-12-11T10:53:16.170729+00:00",
        "meta_object_name": "FENGYUN 1C DEB",
        "meta_object_id": "1999-025BYU",
        "meta_epoch": "2025-12-09T02:33:47.592576",
        "meta_mean_motion": 14.30107061,
        "meta_eccentricity": 0.00306299,
        "meta_inclination": 99.0024,
        "meta_ra_of_asc_node": 37.7345,
        "meta_arg_of_pericenter": 112.6008,
        "meta_mean_anomaly": 269.2597,
        "meta_ephemeris_type": 0,
        "meta_classification_type": "U",
        "meta_norad_cat_id": 31553,
        "meta_element_set_no": 999,
        "meta_rev_at_epoch": 95858,
        "meta_bstar": 0.0019990997,
        "meta_mean_motion_dot": 5.151e-05,
        "meta_mean_motion_ddot": 0,
        "tle_line1": "1 31553U 99025BYU 25343.10680084  .00005151  00000+0  19991-2 0  9998",
        "tle_line2": "2 31553  99.0024  37.7345 0030629 112.6008 269.2597 14.30107061958588"
      },
      "geometry": {
        "type": "Point",
        "coordinates": [
          -146.84011450601196,
          -37.55473718517451
        ]
      }
    }
  ]
}